LANDSAT 9               
1 49260U 21088A   24238.93929682  .00000998  00000+0  23162-3 0  9999
2 49260  98.2269 307.6740 0001202  92.3107 267.8230 14.57105028154857
